[{"OBJECT_NAME":"STARLINK-31742","OBJECT_ID":"2024-071R","EPOCH":"2026-03-09T03:18:19.518624","MEAN_MOTION":15.27533339,"ECCENTRICITY":8.466e-5,"INCLINATION":43.0036,"RA_OF_ASC_NODE":342.6484,"ARG_OF_PERICENTER":259.5431,"MEAN_ANOMALY":100.5326,"EPHEMERIS_TYPE":0,"CLASSIFICATION_TYPE":"U","NORAD_CAT_ID":59499,"ELEMENT_SET_NO":999,"REV_AT_EPOCH":10812,"BSTAR":1.7280895e-5,"MEAN_MOTION_DOT":2.13e-6,"MEAN_MOTION_DDOT":0},{"OBJECT_NAME":"CZ-4C R\/B","OBJECT_ID":"2022-039B","EPOCH":"2026-03-09T15:51:32.485824","MEAN_MOTION":15.03008334,"ECCENTRICITY":0.0113659,"INCLINATION":98.2525,"RA_OF_ASC_NODE":105.9247,"ARG_OF_PERICENTER":45.8852,"MEAN_ANOMALY":315.1654,"EPHEMERIS_TYPE":0,"CLASSIFICATION_TYPE":"U","NORAD_CAT_ID":52258,"ELEMENT_SET_NO":999,"REV_AT_EPOCH":21291,"BSTAR":0.00022979194,"MEAN_MOTION_DOT":3.483e-5,"MEAN_MOTION_DDOT":0}]
